[{"OBJECT_NAME":"STARLINK-5999","OBJECT_ID":"2023-083AK","EPOCH":"2026-03-09T22:00:01.999584","MEAN_MOTION":15.07013342,"ECCENTRICITY":6.738e-5,"INCLINATION":43.0007,"RA_OF_ASC_NODE":67.916,"ARG_OF_PERICENTER":272.4181,"MEAN_ANOMALY":323.8788,"EPHEMERIS_TYPE":0,"CLASSIFICATION_TYPE":"U","NORAD_CAT_ID":56909,"ELEMENT_SET_NO":999,"REV_AT_EPOCH":567,"BSTAR":0.0039179222,"MEAN_MOTION_DOT":0.00059977,"MEAN_MOTION_DDOT":0},{"OBJECT_NAME":"JILIN-01 KUANFU 02B 5","OBJECT_ID":"2024-169E","EPOCH":"2026-03-09T22:46:28.718400","MEAN_MOTION":15.09244096,"ECCENTRICITY":0.00111722,"INCLINATION":97.556,"RA_OF_ASC_NODE":160.0628,"ARG_OF_PERICENTER":294.0678,"MEAN_ANOMALY":65.9381,"EPHEMERIS_TYPE":0,"CLASSIFICATION_TYPE":"U","NORAD_CAT_ID":61193,"ELEMENT_SET_NO":999,"REV_AT_EPOCH":8086,"BSTAR":0.00034816655,"MEAN_MOTION_DOT":5.486e-5,"MEAN_MOTION_DDOT":0}]
